25162,GLOBALSTAR M001,1998,116.3,-1.0,-,52.0,Inactive,0,LEO,USA,Globalstar,Unknown,Unknown,Delta,1 25162U 98008A   24010.46462640 -.00000132  00000+0 -27372-3 0  9991,2 25162  52.0046  57.5119 0001734 213.8624 252.9436 12.38174232178947,12.38174232,0.0001734,LEO
25163,GLOBALSTAR M004,1998,113.98,-1.0,-,52.0,Inactive,0,LEO,USA,Globalstar,Unknown,Unknown,Delta,1 25163U 98008B   24009.95853858 -.00000040  00000+0  35186-3 0  9998,2 25163  51.9967 213.3911 0002584 184.6453 323.0618 12.63348001195428,12.63348001,0.0002584,LEO
25164,GLOBALSTAR M002,1998,123.98,-1.0,-,52.0,Inactive,0,LEO,USA,Globalstar,Unknown,Unknown,Delta,1 25164U 98008C   24009.55702530 -.00000090  00000+0 -27258-3 0  9992,2 25164  52.0015 115.6116 0000913 216.3630 143.7128 11.61497509123104,11.61497509,9.13e-05,LEO
25165,GLOBALSTAR M003,1998,118.82,-1.0,-,51.98,Inactive,0,LEO,USA,Globalstar,Unknown,Unknown,Delta,1 25165U 98008D   24009.98025558  .00000025  00000+0  12228-2 0  9994,2 25165  51.9788 180.4316 0007261 324.3734 212.8701 12.11967154169749,12.11967154,0.0007261,LEO
25306,GLOBALSTAR M014,1998,123.56,-1.0,-,51.99,Inactive,0,LEO,USA,Globalstar,Unknown,Unknown,Delta,1 25306U 98023A   24009.52811282 -.00000091  00000+0 -25836-3 0  9990,2 25306  51.9855  49.9378 0001209 128.4493  42.5158 11.65463059129999,11.65463059,0.0001209,LEO
25307,GLOBALSTAR M006,1998,124.34,-1.0,-,51.99,Inactive,0,LEO,USA,Globalstar,Unknown,Unknown,Delta,1 25307U 98023B   24009.48412328 -.00000092  00000+0 -32520-3 0  9993,2 25307  51.9948  82.9123 0003574 235.0575 222.1695 11.58157249156031,11.58157249,0.0003574,LEO
25308,GLOBALSTAR M015,1998,125.34,-1.0,-,51.98,Inactive,0,LEO,USA,Globalstar,Unknown,Unknown,Delta,1 25308U 98023C   24009.86560098 -.00000087  00000+0 -31469-3 0  9999,2 25308  51.9801 156.4054 0011889 215.9674 313.0118 11.48857517133810,11.48857517,0.0011889,LEO
25309,GLOBALSTAR M008,1998,116.5,-1.0,-,52.0,Inactive,0,LEO,USA,Globalstar,Unknown,Unknown,Delta,1 25309U 98023D   24009.91261936 -.00000081  00000+0  12252-3 0  9997,2 25309  51.9970 278.0158 0002657 132.3147 307.2103 12.36034311173016,12.36034311,0.0002657,LEO
